ONEWEB-0158             
1 48054U 21025N   25319.37397354 -.00000108  00000+0 -33082-3 0  9991
2 48054  87.9020   2.7063 0002056 104.3513 255.7845 13.13468521225567
ONEWEB-0157             
1 48055U 21025P   25319.39936649 -.00000312  00000+0 -88876-3 0  9998
2 48055  87.9013   2.7076 0001850  84.7562 275.3778 13.13470439225508
ONEWEB-0162             
1 48056U 21025Q   25319.37554572 -.00000171  00000+0 -50187-3 0  9995
2 48056  87.9020   2.7139 0001636  95.8278 264.3038 13.13470331225470
ONEWEB-0155             
1 48057U 21025R   25319.38245612 -.00000278  00000+0 -79557-3 0  9999
2 48057  87.9016   2.7177 0001961  93.8900 266.2453 13.13470530225618
ONEWEB-0149             
1 48058U 21025S   25319.40445503  .00000178  00000+0  45339-3 0  9992
2 48058  87.9014   2.7071 0001617  96.6472 263.4841 13.13470171225423
ONEWEB-0148             
1 48059U 21025T   25319.36720671 -.00000274  00000+0 -78511-3 0  9997
2 48059  87.9012   2.7364 0001274  87.7364 272.3911 13.13469242225544
ONEWEB-0160             
1 48060U 21025U   25319.38413875 -.00000340  00000+0 -96488-3 0  9993
2 48060  87.9010   2.7300 0002113 119.2588 240.8752 13.13469234225494
ONEWEB-0163             
1 48061U 21025V   25318.83566146 -.00000280  00000+0 -80057-3 0  9991
2 48061  87.9018   2.8232 0001892  88.9095 271.2251 13.13469703225545
